{
  "type": "FeatureCollection",
  "features": [
    {
      "type": "Feature",
      "properties": {
        "norad_id": 66683,
        "name": "TRANSPORTER-15T",
        "group": "last-30-days",
        "lat": -17.374613651675023,
        "lon": 72.37985868686931,
        "alt_km": 519.9402879851341,
        "timestamp": "2025-12-24T11:32:58.717851+00:00",
        "meta_object_name": "TRANSPORTER-15T",
        "meta_object_id": "2025-276T",
        "meta_epoch": "2025-12-24T03:42:41.713344",
        "meta_mean_motion": 15.17040551,
        "meta_eccentricity": 0.0005126,
        "meta_inclination": 97.4441,
        "meta_ra_of_asc_node": 69.7144,
        "meta_arg_of_pericenter": 251.3557,
        "meta_mean_anomaly": 108.712,
        "meta_ephemeris_type": 0,
        "meta_classification_type": "U",
        "meta_norad_cat_id": 66683,
        "meta_element_set_no": 999,
        "meta_rev_at_epoch": 385,
        "meta_bstar": 0.00075812,
        "meta_mean_motion_dot": 0.00014954,
        "meta_mean_motion_ddot": 0,
        "tle_line1": "1 66683U 25276T   25358.15464946  .00014954  00000+0  75812-3 0  9991",
        "tle_line2": "2 66683  97.4441  69.7144 0005126 251.3557 108.7120 15.17040551  3857"
      },
      "geometry": {
        "type": "Point",
        "coordinates": [
          72.37985868686931,
          -17.374613651675023
        ]
      }
    },
    {
      "type": "Feature",
      "properties": {
        "norad_id": 66684,
        "name": "TRANSPORTER-15U",
        "group": "last-30-days",
        "lat": 1.3950241698909793,
        "lon": 69.8682784200732,
        "alt_km": 518.6869482272959,
        "timestamp": "2025-12-24T11:32:58.717861+00:00",
        "meta_object_name": "TRANSPORTER-15U",
        "meta_object_id": "2025-276U",
        "meta_epoch": "2025-12-24T03:37:47.665632",
        "meta_mean_motion": 15.17348798,
        "meta_eccentricity": 0.000461,
        "meta_inclination": 97.4472,
        "meta_ra_of_asc_node": 69.7264,
        "meta_arg_of_pericenter": 234.6832,
        "meta_mean_anomaly": 125.3971,
        "meta_ephemeris_type": 0,
        "meta_classification_type": "U",
        "meta_norad_cat_id": 66684,
        "meta_element_set_no": 999,
        "meta_rev_at_epoch": 385,
        "meta_bstar": 0.00067879,
        "meta_mean_motion_dot": 0.00013498,
        "meta_mean_motion_ddot": 0,
        "tle_line1": "1 66684U 25276U   25358.15124613  .00013498  00000+0  67879-3 0  9992",
        "tle_line2": "2 66684  97.4472  69.7264 0004610 234.6832 125.3971 15.17348798  3855"
      },
      "geometry": {
        "type": "Point",
        "coordinates": [
          69.8682784200732,
          1.3950241698909793
        ]
      }
    },
    {
      "type": "Feature",
      "properties": {
        "norad_id": 66685,
        "name": "TRANSPORTER-15V",
        "group": "last-30-days",
        "lat": 9.317099518728297,
        "lon": 68.80758192100494,
        "alt_km": 516.247868982945,
        "timestamp": "2025-12-24T11:32:58.717871+00:00",
        "meta_object_name": "TRANSPORTER-15V",
        "meta_object_id": "2025-276V",
        "meta_epoch": "2025-12-24T03:35:44.155104",
        "meta_mean_motion": 15.17502695,
        "meta_eccentricity": 0.0004086,
        "meta_inclination": 97.4416,
        "meta_ra_of_asc_node": 69.7107,
        "meta_arg_of_pericenter": 257.7079,
        "meta_mean_anomaly": 102.3697,
        "meta_ephemeris_type": 0,
        "meta_classification_type": "U",
        "meta_norad_cat_id": 66685,
        "meta_element_set_no": 999,
        "meta_rev_at_epoch": 385,
        "meta_bstar": 0.0008061,
        "meta_mean_motion_dot": 0.00016117,
        "meta_mean_motion_ddot": 0,
        "tle_line1": "1 66685U 25276V   25358.14981661  .00016117  00000+0  80610-3 0  9995",
        "tle_line2": "2 66685  97.4416  69.7107 0004086 257.7079 102.3697 15.17502695  3854"
      },
      "geometry": {
        "type": "Point",
        "coordinates": [
          68.80758192100494,
          9.317099518728297
        ]
      }
    },
    {
      "type": "Feature",
      "properties": {
        "norad_id": 66686,
        "name": "TRANSPORTER-15W",
        "group": "last-30-days",
        "lat": 0.5753132371978692,
        "lon": 69.96282895982594,
        "alt_km": 502.6572262178943,
        "timestamp": "2025-12-24T11:32:58.717885+00:00",
        "meta_object_name": "TRANSPORTER-15W",
        "meta_object_id": "2025-276W",
        "meta_epoch": "2025-12-23T03:56:36.504096",
        "meta_mean_motion": 15.1831658,
        "meta_eccentricity": 0.00058538,
        "meta_inclination": 97.445,
        "meta_ra_of_asc_node": 68.7391,
        "meta_arg_of_pericenter": 311.4119,
        "meta_mean_anomaly": 48.6611,
        "meta_ephemeris_type": 0,
        "meta_classification_type": "U",
        "meta_norad_cat_id": 66686,
        "meta_element_set_no": 999,
        "meta_rev_at_epoch": 370,
        "meta_bstar": 0.05265621,
        "meta_mean_motion_dot": 0.01174743,
        "meta_mean_motion_ddot": 0,
        "tle_line1": "1 66686U 25276W   25357.16431139  .01174743  00000+0  52656-1 0  9995",
        "tle_line2": "2 66686  97.4450  68.7391 0005853 311.4119  48.6611 15.18316580  3702"
      },
      "geometry": {
        "type": "Point",
        "coordinates": [
          69.96282895982594,
          0.5753132371978692
        ]
      }
    },
    {
      "type": "Feature",
      "properties": {
        "norad_id": 66687,
        "name": "TRANSPORTER-15X",
        "group": "last-30-days",
        "lat": -43.773374938516376,
        "lon": 77.19292155024817,
        "alt_km": 522.7162733216601,
        "timestamp": "2025-12-24T11:32:58.717895+00:00",
        "meta_object_name": "TRANSPORTER-15X",
        "meta_object_id": "2025-276X",
        "meta_epoch": "2025-12-24T03:49:39.026208",
        "meta_mean_motion": 15.16734576,
        "meta_eccentricity": 0.0008096,
        "meta_inclination": 97.4384,
        "meta_ra_of_asc_node": 69.6866,
        "meta_arg_of_pericenter": 50.0024,
        "meta_mean_anomaly": 310.1919,
        "meta_ephemeris_type": 0,
        "meta_classification_type": "U",
        "meta_norad_cat_id": 66687,
        "meta_element_set_no": 999,
        "meta_rev_at_epoch": 385,
        "meta_bstar": 0.0007133,
        "meta_mean_motion_dot": 0.00013949,
        "meta_mean_motion_ddot": 0,
        "tle_line1": "1 66687U 25276X   25358.15947947  .00013949  00000+0  71330-3 0  9996",
        "tle_line2": "2 66687  97.4384  69.6866 0008096  50.0024 310.1919 15.16734576  3850"
      },
      "geometry": {
        "type": "Point",
        "coordinates": [
          77.19292155024817,
          -43.773374938516376
        ]
      }
    },
    {
      "type": "Feature",
      "properties": {
        "norad_id": 66688,
        "name": "TRANSPORTER-15Y",
        "group": "last-30-days",
        "lat": -7.708442255332665,
        "lon": 71.04776292973288,
        "alt_km": 519.561267698854,
        "timestamp": "2025-12-24T11:32:58.717905+00:00",
        "meta_object_name": "TRANSPORTER-15Y",
        "meta_object_id": "2025-276Y",
        "meta_epoch": "2025-12-24T03:40:08.302368",
        "meta_mean_motion": 15.17097306,
        "meta_eccentricity": 0.0003775,
        "meta_inclination": 97.4428,
        "meta_ra_of_asc_node": 69.7114,
        "meta_arg_of_pericenter": 242.4616,
        "meta_mean_anomaly": 117.6234,
        "meta_ephemeris_type": 0,
        "meta_classification_type": "U",
        "meta_norad_cat_id": 66688,
        "meta_element_set_no": 999,
        "meta_rev_at_epoch": 385,
        "meta_bstar": 0.00055627,
        "meta_mean_motion_dot": 0.00010965,
        "meta_mean_motion_ddot": 0,
        "tle_line1": "1 66688U 25276Y   25358.15287387  .00010965  00000+0  55627-3 0  9998",
        "tle_line2": "2 66688  97.4428  69.7114 0003775 242.4616 117.6234 15.17097306  3854"
      },
      "geometry": {
        "type": "Point",
        "coordinates": [
          71.04776292973288,
          -7.708442255332665
        ]
      }
    },
    {
      "type": "Feature",
      "properties": {
        "norad_id": 66689,
        "name": "TRANSPORTER-15Z",
        "group": "last-30-days",
        "lat": 73.70991607368471,
        "lon": 43.50001999127311,
        "alt_km": 485.6774716469872,
        "timestamp": "2025-12-24T11:32:58.717915+00:00",
        "meta_object_name": "TRANSPORTER-15Z",
        "meta_object_id": "2025-276Z",
        "meta_epoch": "2025-12-22T21:27:46.425312",
        "meta_mean_motion": 15.23073772,
        "meta_eccentricity": 0.00272271,
        "meta_inclination": 97.4409,
        "meta_ra_of_asc_node": 68.4858,
        "meta_arg_of_pericenter": 260.8557,
        "meta_mean_anomaly": 98.9599,
        "meta_ephemeris_type": 0,
        "meta_classification_type": "U",
        "meta_norad_cat_id": 66689,
        "meta_element_set_no": 999,
        "meta_rev_at_epoch": 366,
        "meta_bstar": 0.086131248,
        "meta_mean_motion_dot": 0.02294864,
        "meta_mean_motion_ddot": 0,
        "tle_line1": "1 66689U 25276Z   25356.89428733  .02294864  00000+0  86131-1 0  9996",
        "tle_line2": "2 66689  97.4409  68.4858 0027227 260.8557  98.9599 15.23073772  3663"
      },
      "geometry": {
        "type": "Point",
        "coordinates": [
          43.50001999127311,
          73.70991607368471
        ]
      }
    }
  ]
}